STARLINK-31630          
1 59271U 24050T   26068.56880718 -.00002063  00000+0 -57526-4 0  9991
2 59271  53.1600 168.5079 0001409  92.3163 267.7999 15.30200807110710
2025-313BD              
1 67299U 25313BD  26068.62968741  .00081010  00000+0  27634-2 0  9995
2 67299  97.3970 145.2850 0007287 333.4514  26.6352 15.30002360 10838
